GSAT0101 (PRN E11)      
1 37846U 11060A   17275.55820574  .00000006  00000-0  00000+0 0  9999
2 37846  55.9106  68.7080 0001792  10.1178 349.9003  1.70473598 37048
GSAT0102 (PRN E12)      
1 37847U 11060B   17277.23313292  .00000004  00000-0  00000-0 0  9990
2 37847  55.9125  68.6604 0002267 314.9130  37.3479  1.70475855 36943
GSAT0103 (PRN E19)      
1 38857U 12055A   17275.60093906 -.00000007  00000-0  00000+0 0  9996
2 38857  54.9048 189.0608 0003187 249.2771 110.7135  1.70473827 30961
GSAT0104 (PRN E20)      
1 38858U 12055B   17276.70838675 -.00000003  00000-0  00000-0 0  9996
2 38858  54.9055 189.0292 0002074 253.8377 106.1699  1.70473883 30973
GSAT0201 (PRN E18)      
1 40128U 14050A   17277.47935668 -.00000057  00000-0  00000-0 0  9990
2 40128  50.3654  40.8332 1632425  67.3087 309.0661  1.85519579 19391
GSAT0202 (PRN E14)      
1 40129U 14050B   17277.20761606 -.00000058  00000-0  00000-0 0  9992
2 40129  50.4174  39.8450 1633008  68.2792 308.2462  1.85520231 21525
GSAT0203 (PRN E26)      
1 40544U 15017A   17277.68518832  .00000003  00000-0  00000-0 0  9999
2 40544  55.7016  68.9227 0002616 200.9453 159.0492  1.70475269 15035
GSAT0204 (PRN E22)      
1 40545U 15017B   17277.46813490  .00000004  00000-0  00000-0 0  9995
2 40545  55.7080  68.9406 0002982 150.1287 209.8947  1.70475464 15691
GSAT0205 (PRN E24)      
1 40889U 15045A   17274.77575431 -.00000004  00000-0  00000+0 0  9998
2 40889  56.9367 309.2264 0002170 303.0038  57.0471  1.70474981 12794
GSAT0206 (PRN E30)      
1 40890U 15045B   17276.16881738  .00000000  00000-0  00000+0 0  9990
2 40890  56.9345 309.1858 0002246 260.4354  99.6125  1.70474942 12842
GSAT0209 (PRN E09)      
1 41174U 15079A   17269.88834779 -.00000013  00000-0  00000+0 0  9992
2 41174  54.9184 188.9075 0005000 296.1345  63.8381  1.70473131 11056
GSAT0208 (PRN E08)      
1 41175U 15079B   17275.97413373 -.00000006  00000-0  00000+0 0  9995
2 41175  54.9163 188.7401 0003887 297.0085  62.9790  1.70473092 11169
GSAT0211 (PRN E02)      
1 41549U 16030A   17276.09451656  .00000001  00000-0  00000+0 0  9992
2 41549  57.0749 308.9437 0004456 262.7141  97.3084  1.70474758  8465
GSAT0210 (PRN E01)      
1 41550U 16030B   17276.97432792  .00000002  00000-0  00000-0 0  9993
2 41550  57.0736 308.9219 0004920 242.1176 117.9050  1.70474741  8483
GSAT0207 (PRN E07)      
1 41859U 16069A   17271.94172067 -.00000014  00000-0  00000-0 0  9999
2 41859  54.5775 189.4634 0004626 283.9493  76.0201  1.70473116  5295
GSAT0212 (PRN E03)      
1 41860U 16069B   17270.03534561 -.00000014  00000-0  00000+0 0  9990
2 41860  54.5751 189.5174 0003713 302.2036  57.7832  1.70473013  5354
GSAT0213 (PRN E04)      
1 41861U 16069C   17275.68112951 -.00000008  00000-0  00000+0 0  9995
2 41861  54.5772 189.3621 0003437 260.3225  99.6631  1.70473163  5448
GSAT0214 (PRN E05)      
1 41862U 16069D   17277.00098941 -.00000002  00000-0  00000+0 0  9990
2 41862  54.5753 189.3220 0002664 265.0905  94.9106  1.70472950  5461
